{"type": "FeatureCollection", "features": [ {"type": "Feature", "properties": {"norad_id": 52912, "name": "GAOFEN-12 03", "group": "resource", "lat": -70.4705637712007, "lon": -95.54171119174602, "alt_km": 638.6028887965495, "timestamp": "2025-12-20T09:36:01.289525+00:00", "meta": {"OBJECT_NAME": "GAOFEN-12 03", "OBJECT_ID": "2022-069A", "EPOCH": "2025-12-20T03:26:00.710592", "MEAN_MOTION": 14.7962767, "ECCENTRICITY": 0.0002022, "INCLINATION": 97.8489, "RA_OF_ASC_NODE": 241.3206, "ARG_OF_PERICENTER": 53.9282, "MEAN_ANOMALY": 306.2117, "EPHEMERIS_TYPE": 0, "CLASSIFICATION_TYPE": "U", "NORAD_CAT_ID": 52912, "ELEMENT_SET_NO": 999, "REV_AT_EPOCH": 18813, "BSTAR": 0.00018504, "MEAN_MOTION_DOT": 1.337e-05, "MEAN_MOTION_DDOT": 0}, "tle": {"line1": "1 52912U 22069A   25354.14306378  .00001337  00000+0  18504-3 0  9993", "line2": "2 52912  97.8489 241.3206 0002022  53.9282 306.2117 14.79627670188139"}}, "geometry": {"type": "Point", "coordinates": [-95.54171119174602, -70.4705637712007]}}, {"type": "Feature", "properties": {"norad_id": 54754, "name": "SWOT", "group": "resource", "lat": -56.76969807247395, "lon": 116.25277903900873, "alt_km": 900.3210494714685, "timestamp": "2025-12-20T09:36:01.289535+00:00", "meta": {"OBJECT_NAME": "SWOT", "OBJECT_ID": "2022-173A", "EPOCH": "2025-12-20T03:19:06.261024", "MEAN_MOTION": 14.00167908, "ECCENTRICITY": 3.54e-05, "INCLINATION": 77.6109, "RA_OF_ASC_NODE": 277.0027, "ARG_OF_PERICENTER": 92.6118, "MEAN_ANOMALY": 267.5074, "EPHEMERIS_TYPE": 0, "CLASSIFICATION_TYPE": "U", "NORAD_CAT_ID": 54754, "ELEMENT_SET_NO": 999, "REV_AT_EPOCH": 15409, "BSTAR": 1.6701e-05, "MEAN_MOTION_DOT": 2.2e-07, "MEAN_MOTION_DDOT": 0}, "tle": {"line1": "1 54754U 22173A   25354.13826691  .00000022  00000+0  16701-4 0  9997", "line2": "2 54754  77.6109 277.0027 0000354  92.6118 267.5074 14.00167908154097"}}, "geometry": {"type": "Point", "coordinates": [116.25277903900873, -56.76969807247395]}}, {"type": "Feature", "properties": {"norad_id": 57654, "name": "GAOFEN-12 04", "group": "resource", "lat": 77.09953571241297, "lon": 127.4309423856853, "alt_km": 622.1619623929273, "timestamp": "2025-12-20T09:36:01.289545+00:00", "meta": {"OBJECT_NAME": "GAOFEN-12 04", "OBJECT_ID": "2023-123A", "EPOCH": "2025-12-20T04:16:49.941984", "MEAN_MOTION": 14.79719538, "ECCENTRICITY": 0.0001236, "INCLINATION": 97.9127, "RA_OF_ASC_NODE": 269.8227, "ARG_OF_PERICENTER": 77.2148, "MEAN_ANOMALY": 282.9201, "EPHEMERIS_TYPE": 0, "CLASSIFICATION_TYPE": "U", "NORAD_CAT_ID": 57654, "ELEMENT_SET_NO": 999, "REV_AT_EPOCH": 12615, "BSTAR": 0.00012731, "MEAN_MOTION_DOT": 9.05e-06, "MEAN_MOTION_DDOT": 0}, "tle": {"line1": "1 57654U 23123A   25354.17835581  .00000905  00000+0  12731-3 0  9995", "line2": "2 57654  97.9127 269.8227 0001236  77.2148 282.9201 14.79719538126154"}}, "geometry": {"type": "Point", "coordinates": [127.4309423856853, 77.09953571241297]}}, {"type": "Feature", "properties": {"norad_id": 59065, "name": "PARS 1", "group": "resource", "lat": 25.48576819392586, "lon": -38.086968311275626, "alt_km": 434.45090619521943, "timestamp": "2025-12-20T09:36:01.289555+00:00", "meta": {"OBJECT_NAME": "PARS 1", "OBJECT_ID": "2024-039Q", "EPOCH": "2025-12-19T22:34:52.192704", "MEAN_MOTION": 15.41128111, "ECCENTRICITY": 0.00121092, "INCLINATION": 97.4638, "RA_OF_ASC_NODE": 325.0269, "ARG_OF_PERICENTER": 50.4841, "MEAN_ANOMALY": 309.7474, "EPHEMERIS_TYPE": 0, "CLASSIFICATION_TYPE": "U", "NORAD_CAT_ID": 59065, "ELEMENT_SET_NO": 999, "REV_AT_EPOCH": 10099, "BSTAR": 0.00020713504, "MEAN_MOTION_DOT": 8.51e-05, "MEAN_MOTION_DDOT": 0}, "tle": {"line1": "1 59065U 24039Q   25353.94088186  .00008510  00000+0  20714-3 0  9995", "line2": "2 59065  97.4638 325.0269 0012109  50.4841 309.7474 15.41128111100994"}}, "geometry": {"type": "Point", "coordinates": [-38.086968311275626, 25.48576819392586]}}, {"type": "Feature", "properties": {"norad_id": 59371, "name": "RESURS-P 4", "group": "resource", "lat": -76.45764112331024, "lon": -27.492399667425612, "alt_km": 477.2969481552036, "timestamp": "2025-12-20T09:36:01.289565+00:00", "meta": {"OBJECT_NAME": "RESURS-P 4", "OBJECT_ID": "2024-061A", "EPOCH": "2025-12-19T22:58:14.089728", "MEAN_MOTION": 15.3213882, "ECCENTRICITY": 0.00010383, "INCLINATION": 97.2555, "RA_OF_ASC_NODE": 300.1391, "ARG_OF_PERICENTER": 60.005, "MEAN_ANOMALY": 300.1295, "EPHEMERIS_TYPE": 0, "CLASSIFICATION_TYPE": "U", "NORAD_CAT_ID": 59371, "ELEMENT_SET_NO": 999, "REV_AT_EPOCH": 9631, "BSTAR": 9.8572532e-05, "MEAN_MOTION_DOT": 2.983e-05, "MEAN_MOTION_DDOT": 0}, "tle": {"line1": "1 59371U 24061A   25353.95710752  .00002983  00000+0  98573-4 0  9999", "line2": "2 59371  97.2555 300.1391 0001038  60.0050 300.1295 15.32138820 96312"}}, "geometry": {"type": "Point", "coordinates": [-27.492399667425612, -76.45764112331024]}}, {"type": "Feature", "properties": {"norad_id": 59625, "name": "LEGION 1", "group": "resource", "lat": 75.18717214643632, "lon": 39.000435608160515, "alt_km": 511.404766530035, "timestamp": "2025-12-20T09:36:01.289575+00:00", "meta": {"OBJECT_NAME": "LEGION 1", "OBJECT_ID": "2024-081A", "EPOCH": "2025-12-19T22:10:34.509792", "MEAN_MOTION": 15.1654522, "ECCENTRICITY": 0.00036426, "INCLINATION": 97.521, "RA_OF_ASC_NODE": 68.5014, "ARG_OF_PERICENTER": 285.0786, "MEAN_ANOMALY": 75.0043, "EPHEMERIS_TYPE": 0, "CLASSIFICATION_TYPE": "U", "NORAD_CAT_ID": 59625, "ELEMENT_SET_NO": 999, "REV_AT_EPOCH": 9036, "BSTAR": 0.00015931933, "MEAN_MOTION_DOT": 3.04e-05, "MEAN_MOTION_DDOT": 0}, "tle": {"line1": "1 59625U 24081A   25353.92401053  .00003040  00000+0  15932-3 0  9993", "line2": "2 59625  97.5210  68.5014 0003642 285.0786  75.0043 15.16545220 90366"}}, "geometry": {"type": "Point", "coordinates": [39.000435608160515, 75.18717214643632]}}, {"type": "Feature", "properties": {"norad_id": 59626, "name": "LEGION 2", "group": "resource", "lat": -75.30482996462734, "lon": -141.19012473396802, "alt_km": 519.7039293294165, "timestamp": "2025-12-20T09:36:01.289585+00:00", "meta": {"OBJECT_NAME": "LEGION 2", "OBJECT_ID": "2024-081B", "EPOCH": "2025-12-19T21:23:02.476896", "MEAN_MOTION": 15.16558357, "ECCENTRICITY": 0.00056284, "INCLINATION": 97.5213, "RA_OF_ASC_NODE": 68.5565, "ARG_OF_PERICENTER": 262.4984, "MEAN_ANOMALY": 97.561, "EPHEMERIS_TYPE": 0, "CLASSIFICATION_TYPE": "U", "NORAD_CAT_ID": 59626, "ELEMENT_SET_NO": 999, "REV_AT_EPOCH": 9036, "BSTAR": 0.000197742, "MEAN_MOTION_DOT": 3.792e-05, "MEAN_MOTION_DDOT": 0}, "tle": {"line1": "1 59626U 24081B   25353.89100089  .00003792  00000+0  19774-3 0  9997", "line2": "2 59626  97.5213  68.5565 0005628 262.4984  97.5610 15.16558357 90360"}}, "geometry": {"type": "Point", "coordinates": [-141.19012473396802, -75.30482996462734]}}, {"type": "Feature", "properties": {"norad_id": 60182, "name": "ALOS-4 (DAICHI-4)", "group": "resource", "lat": -25.665228065267094, "lon": 92.97465749797915, "alt_km": 637.2181565577466, "timestamp": "2025-12-20T09:36:01.289595+00:00", "meta": {"OBJECT_NAME": "ALOS-4 (DAICHI-4)", "OBJECT_ID": "2024-123A", "EPOCH": "2025-12-19T22:21:18.106848", "MEAN_MOTION": 14.79474129, "ECCENTRICITY": 0.00013822, "INCLINATION": 97.9224, "RA_OF_ASC_NODE": 88.6761, "ARG_OF_PERICENTER": 101.3825, "MEAN_ANOMALY": 258.7542, "EPHEMERIS_TYPE": 0, "CLASSIFICATION_TYPE": "U", "NORAD_CAT_ID": 60182, "ELEMENT_SET_NO": 999, "REV_AT_EPOCH": 7937, "BSTAR": 0.00019337671, "MEAN_MOTION_DOT": 1.393e-05, "MEAN_MOTION_DDOT": 0}, "tle": {"line1": "1 60182U 24123A   25353.93145957  .00001393  00000+0  19338-3 0  9992", "line2": "2 60182  97.9224  88.6761 0001382 101.3825 258.7542 14.79474129 79379"}}, "geometry": {"type": "Point", "coordinates": [92.97465749797915, -25.665228065267094]}}, {"type": "Feature", "properties": {"norad_id": 60452, "name": "LEGION 3", "group": "resource", "lat": -3.018181171982017, "lon": -93.96031488903488, "alt_km": 523.4941530656824, "timestamp": "2025-12-20T09:36:01.289605+00:00", "meta": {"OBJECT_NAME": "LEGION 3", "OBJECT_ID": "2024-146A", "EPOCH": "2025-12-19T20:57:57.766464", "MEAN_MOTION": 15.15831408, "ECCENTRICITY": 0.00156347, "INCLINATION": 45.0021, "RA_OF_ASC_NODE": 271.8877, "ARG_OF_PERICENTER": 237.0993, "MEAN_ANOMALY": 122.8381, "EPHEMERIS_TYPE": 0, "CLASSIFICATION_TYPE": "U", "NORAD_CAT_ID": 60452, "ELEMENT_SET_NO": 999, "REV_AT_EPOCH": 7481, "BSTAR": 0.0001725552, "MEAN_MOTION_DOT": 3.098e-05, "MEAN_MOTION_DDOT": 0}, "tle": {"line1": "1 60452U 24146A   25353.87358526  .00003098  00000+0  17256-3 0  9999", "line2": "2 60452  45.0021 271.8877 0015634 237.0993 122.8381 15.15831408 74814"}}, "geometry": {"type": "Point", "coordinates": [-93.96031488903488, -3.018181171982017]}}, {"type": "Feature", "properties": {"norad_id": 60453, "name": "LEGION 4", "group": "resource", "lat": -4.236992891007006, "lon": -3.4079038722512474, "alt_km": 512.7298618295372, "timestamp": "2025-12-20T09:36:01.289616+00:00", "meta": {"OBJECT_NAME": "LEGION 4", "OBJECT_ID": "2024-146B", "EPOCH": "2025-12-19T20:58:26.370912", "MEAN_MOTION": 15.15893428, "ECCENTRICITY": 0.00088008, "INCLINATION": 45.0395, "RA_OF_ASC_NODE": 3.6582, "ARG_OF_PERICENTER": 349.2141, "MEAN_ANOMALY": 10.8548, "EPHEMERIS_TYPE": 0, "CLASSIFICATION_TYPE": "U", "NORAD_CAT_ID": 60453, "ELEMENT_SET_NO": 999, "REV_AT_EPOCH": 7366, "BSTAR": 0.00018434267, "MEAN_MOTION_DOT": 3.328e-05, "MEAN_MOTION_DDOT": 0}, "tle": {"line1": "1 60453U 24146B   25353.87391633  .00003328  00000+0  18434-3 0  9991", "line2": "2 60453  45.0395   3.6582 0008800 349.2141  10.8548 15.15893428 73664"}}, "geometry": {"type": "Point", "coordinates": [-3.4079038722512474, -4.236992891007006]}}]}